{
  "BD": {
    "name": "Bangladesh",
    "dialCode": "+880",
    "currencyCode": "BDT",
    "flagEmoji": "ðŸ‡§ðŸ‡©"
  },
  "BE": {
    "name": "Belgium",
    "dialCode": "+32",
    "currencyCode": "EUR",
    "flagEmoji": "ðŸ‡§ðŸ‡ª"
  },
  "BF": {
    "name": "Burkina Faso",
    "dialCode": "+226",
    "currencyCode": "XOF",
    "flagEmoji": "ðŸ‡§ðŸ‡«"
  },
  "BG": {
    "name": "Bulgaria",
    "dialCode": "+359",
    "currencyCode": "BGN",
    "flagEmoji": "ðŸ‡§ðŸ‡¬"
  },
  "BA": {
    "name": "Bosnia and Herzegovina",
    "dialCode": "+387",
    "currencyCode": "BAM",
    "flagEmoji": "ðŸ‡§ðŸ‡¦"
  },
  "BB": {
    "name": "Barbados",
    "dialCode": "+1246",
    "currencyCode": "BBD",
    "flagEmoji": "ðŸ‡§ðŸ‡§"
  },
  "WF": {
    "name": "Wallis and Futuna",
    "dialCode": "+681",
    "currencyCode": "XPF",
    "flagEmoji": "ðŸ‡¼ðŸ‡«"
  },
  "BL": {
    "name": "Saint Barthelemy",
    "dialCode": "+590",
    "currencyCode": "EUR",
    "flagEmoji": "ðŸ‡§ðŸ‡±"
  },
  "BM": {
    "name": "Bermuda",
    "dialCode": "+1441",
    "currencyCode": "BMD",
    "flagEmoji": "ðŸ‡§ðŸ‡²"
  },
  "BN": {
    "name": "Brunei Darussalam",
    "dialCode": "+673",
    "currencyCode": "BND",
    "flagEmoji": "ðŸ‡§ðŸ‡³"
  },
  "BO": {
    "name": "Bolivia, Plurinational State of",
    "dialCode": "+591",
    "currencyCode": "BOB",
    "flagEmoji": "ðŸ‡§ðŸ‡´"
  },
  "BH": {
    "name": "Bahrain",
    "dialCode": "+973",
    "currencyCode": "BHD",
    "flagEmoji": "ðŸ‡§ðŸ‡­"
  },
  "BI": {
    "name": "Burundi",
    "dialCode": "+257",
    "currencyCode": "BIF",
    "flagEmoji": "ðŸ‡§ðŸ‡®"
  },
  "BJ": {
    "name": "Benin",
    "dialCode": "+229",
    "currencyCode": "XOF",
    "flagEmoji": "ðŸ‡§ðŸ‡¯"
  },
  "BT": {
    "name": "Bhutan",
    "dialCode": "+975",
    "currencyCode": "BTN",
    "flagEmoji": "ðŸ‡§ðŸ‡¹"
  },
  "JM": {
    "name": "Jamaica",
    "dialCode": "+1876",
    "currencyCode": "JMD",
    "flagEmoji": "ðŸ‡¯ðŸ‡²"
  },
  "BW": {
    "name": "Botswana",
    "dialCode": "+267",
    "currencyCode": "BWP",
    "flagEmoji": "ðŸ‡§ðŸ‡¼"
  },
  "WS": {
    "name": "Samoa",
    "dialCode": "+685",
    "currencyCode": "WST",
    "flagEmoji": "ðŸ‡¼ðŸ‡¸"
  },
  "BR": {
    "name": "Brazil",
    "dialCode": "+55",
    "currencyCode": "BRL",
    "flagEmoji": "ðŸ‡§ðŸ‡·"
  },
  "BS": {
    "name": "Bahamas",
    "dialCode": "+1242",
    "currencyCode": "BSD",
    "flagEmoji": "ðŸ‡§ðŸ‡¸"
  },
  "JE": {
    "name": "Jersey",
    "dialCode": "+44",
    "currencyCode": "GBP",
    "flagEmoji": "ðŸ‡¯ðŸ‡ª"
  },
  "BY": {
    "name": "Belarus",
    "dialCode": "+375",
    "currencyCode": "BYR",
    "flagEmoji": "ðŸ‡§ðŸ‡¾"
  },
  "BZ": {
    "name": "Belize",
    "dialCode": "+501",
    "currencyCode": "BZD",
    "flagEmoji": "ðŸ‡§ðŸ‡¿"
  },
  "RU": {
    "name": "Russia",
    "dialCode": "+7",
    "currencyCode": "RUB",
    "flagEmoji": "ðŸ‡·ðŸ‡º"
  },
  "RW": {
    "name": "Rwanda",
    "dialCode": "+250",
    "currencyCode": "RWF",
    "flagEmoji": "ðŸ‡·ðŸ‡¼"
  },
  "RS": {
    "name": "Serbia",
    "dialCode": "+381",
    "currencyCode": "RSD",
    "flagEmoji": "ðŸ‡·ðŸ‡¸"
  },
  "TL": {
    "name": "Timor-Leste",
    "dialCode": "+670",
    "currencyCode": "USD",
    "flagEmoji": "ðŸ‡¹ðŸ‡±"
  },
  "RE": {
    "name": "Reunion",
    "dialCode": "+262",
    "currencyCode": "EUR",
    "flagEmoji": "ðŸ‡·ðŸ‡ª"
  },
  "TM": {
    "name": "Turkmenistan",
    "dialCode": "+993",
    "currencyCode": "TMT",
    "flagEmoji": "ðŸ‡¹ðŸ‡²"
  },
  "TJ": {
    "name": "Tajikistan",
    "dialCode": "+992",
    "currencyCode": "TJS",
    "flagEmoji": "ðŸ‡¹ðŸ‡¯"
  },
  "RO": {
    "name": "Romania",
    "dialCode": "+40",
    "currencyCode": "RON",
    "flagEmoji": "ðŸ‡·ðŸ‡´"
  },
  "TK": {
    "name": "Tokelau",
    "dialCode": "+690",
    "currencyCode": "NZD",
    "flagEmoji": "ðŸ‡¹ðŸ‡°"
  },
  "GW": {
    "name": "Guinea-Bissau",
    "dialCode": "+245",
    "currencyCode": "XOF",
    "flagEmoji": "ðŸ‡¬ðŸ‡¼"
  },
  "GU": {
    "name": "Guam",
    "dialCode": "+1671",
    "currencyCode": "USD",
    "flagEmoji": "ðŸ‡¬ðŸ‡º"
  },
  "GT": {
    "name": "Guatemala",
    "dialCode": "+502",
    "currencyCode": "GTQ",
    "flagEmoji": "ðŸ‡¬ðŸ‡¹"
  },
  "GS": {
    "name": "South Georgia and the South Sandwich Islands",
    "dialCode": "+500",
    "currencyCode": "GBP",
    "flagEmoji": "ðŸ‡¬ðŸ‡¸"
  },
  "GR": {
    "name": "Greece",
    "dialCode": "+30",
    "currencyCode": "EUR",
    "flagEmoji": "ðŸ‡¬ðŸ‡·"
  },
  "GQ": {
    "name": "Equatorial Guinea",
    "dialCode": "+240",
    "currencyCode": "XAF",
    "flagEmoji": "ðŸ‡¬ðŸ‡¶"
  },
  "GP": {
    "name": "Guadeloupe",
    "dialCode": "+590",
    "currencyCode": "EUR",
    "flagEmoji": "ðŸ‡¬ðŸ‡µ"
  },
  "JP": {
    "name": "Japan",
    "dialCode": "+81",
    "currencyCode": "JPY",
    "flagEmoji": "ðŸ‡¯ðŸ‡µ"
  },
  "GY": {
    "name": "Guyana",
    "dialCode": "+595",
    "currencyCode": "GYD",
    "flagEmoji": "ðŸ‡¬ðŸ‡¾"
  },
  "GG": {
    "name": "Guernsey",
    "dialCode": "+44",
    "currencyCode": "GBP",
    "flagEmoji": "ðŸ‡¬ðŸ‡¬"
  },
  "GF": {
    "name": "French Guiana",
    "dialCode": "+594",
    "currencyCode": "EUR",
    "flagEmoji": "ðŸ‡¬ðŸ‡«"
  },
  "GE": {
    "name": "Georgia",
    "dialCode": "+995",
    "currencyCode": "GEL",
    "flagEmoji": "ðŸ‡¬ðŸ‡ª"
  },
  "GD": {
    "name": "Grenada",
    "dialCode": "+1473",
    "currencyCode": "XCD",
    "flagEmoji": "ðŸ‡¬ðŸ‡©"
  },
  "GB": {
    "name": "United Kingdom",
    "dialCode": "+44",
    "currencyCode": "GBP",
    "flagEmoji": "ðŸ‡¬ðŸ‡§"
  },
  "GA": {
    "name": "Gabon",
    "dialCode": "+241",
    "currencyCode": "XAF",
    "flagEmoji": "ðŸ‡¬ðŸ‡¦"
  },
  "SV": {
    "name": "El Salvador",
    "dialCode": "+503",
    "currencyCode": "USD",
    "flagEmoji": "ðŸ‡¸ðŸ‡»"
  },
  "GN": {
    "name": "Guinea",
    "dialCode": "+224",
    "currencyCode": "GNF",
    "flagEmoji": "ðŸ‡¬ðŸ‡³"
  },
  "GM": {
    "name": "Gambia",
    "dialCode": "+220",
    "currencyCode": "GMD",
    "flagEmoji": "ðŸ‡¬ðŸ‡²"
  },
  "GL": {
    "name": "Greenland",
    "dialCode": "+299",
    "currencyCode": "DKK",
    "flagEmoji": "ðŸ‡¬ðŸ‡±"
  },
  "GI": {
    "name": "Gibraltar",
    "dialCode": "+350",
    "currencyCode": "GIP",
    "flagEmoji": "ðŸ‡¬ðŸ‡®"
  },
  "GH": {
    "name": "Ghana",
    "dialCode": "+233",
    "currencyCode": "GHS",
    "flagEmoji": "ðŸ‡¬ðŸ‡­"
  },
  "OM": {
    "name": "Oman",
    "dialCode": "+968",
    "currencyCode": "OMR",
    "flagEmoji": "ðŸ‡´ðŸ‡²"
  },
  "TN": {
    "name": "Tunisia",
    "dialCode": "+216",
    "currencyCode": "TND",
    "flagEmoji": "ðŸ‡¹ðŸ‡³"
  },
  "JO": {
    "name": "Jordan",
    "dialCode": "+962",
    "currencyCode": "JOD",
    "flagEmoji": "ðŸ‡¯ðŸ‡´"
  },
  "HR": {
    "name": "Croatia",
    "dialCode": "+385",
    "currencyCode": "HRK",
    "flagEmoji": "ðŸ‡­ðŸ‡·"
  },
  "HT": {
    "name": "Haiti",
    "dialCode": "+509",
    "currencyCode": "HTG",
    "flagEmoji": "ðŸ‡­ðŸ‡¹"
  },
  "HU": {
    "name": "Hungary",
    "dialCode": "+36",
    "currencyCode": "HUF",
    "flagEmoji": "ðŸ‡­ðŸ‡º"
  },
  "HK": {
    "name": "Hong Kong",
    "dialCode": "+852",
    "currencyCode": "HKD",
    "flagEmoji": "ðŸ‡­ðŸ‡°"
  },
  "HN": {
    "name": "Honduras",
    "dialCode": "+504",
    "currencyCode": "HNL",
    "flagEmoji": "ðŸ‡­ðŸ‡³"
  },
  "VE": {
    "name": "Venezuela, Bolivarian Republic of Venezuela",
    "dialCode": "+58",
    "currencyCode": "VEF",
    "flagEmoji": "ðŸ‡»ðŸ‡ª"
  },
  "PR": {
    "name": "Puerto Rico",
    "dialCode": "+1939",
    "currencyCode": "USD",
    "flagEmoji": "ðŸ‡µðŸ‡·"
  },
  "PS": {
    "name": "Palestine",
    "dialCode": "+970",
    "currencyCode": "ILS",
    "flagEmoji": "ðŸ‡µðŸ‡¸"
  },
  "PW": {
    "name": "Palau",
    "dialCode": "+680",
    "currencyCode": "USD",
    "flagEmoji": "ðŸ‡µðŸ‡¼"
  },
  "PT": {
    "name": "Portugal",
    "dialCode": "+351",
    "currencyCode": "EUR",
    "flagEmoji": "ðŸ‡µðŸ‡¹"
  },
  "SJ": {
    "name": "Svalbard and Jan Mayen",
    "dialCode": "+47",
    "currencyCode": "NOK",
    "flagEmoji": "ðŸ‡¸ðŸ‡¯"
  },
  "PY": {
    "name": "Paraguay",
    "dialCode": "+595",
    "currencyCode": "PYG",
    "flagEmoji": "ðŸ‡µðŸ‡¾"
  },
  "IQ": {
    "name": "Iraq",
    "dialCode": "+964",
    "currencyCode": "IQD",
    "flagEmoji": "ðŸ‡®ðŸ‡¶"
  },
  "PA": {
    "name": "Panama",
    "dialCode": "+507",
    "currencyCode": "PAB",
    "flagEmoji": "ðŸ‡µðŸ‡¦"
  },
  "PF": {
    "name": "French Polynesia",
    "dialCode": "+689",
    "currencyCode": "XPF",
    "flagEmoji": "ðŸ‡µðŸ‡«"
  },
  "PG": {
    "name": "Papua New Guinea",
    "dialCode": "+675",
    "currencyCode": "PGK",
    "flagEmoji": "ðŸ‡µðŸ‡¬"
  },
  "PE": {
    "name": "Peru",
    "dialCode": "+51",
    "currencyCode": "PEN",
    "flagEmoji": "ðŸ‡µðŸ‡ª"
  },
  "PK": {
    "name": "Pakistan",
    "dialCode": "+92",
    "currencyCode": "PKR",
    "flagEmoji": "ðŸ‡µðŸ‡°"
  },
  "PH": {
    "name": "Philippines",
    "dialCode": "+63",
    "currencyCode": "PHP",
    "flagEmoji": "ðŸ‡µðŸ‡­"
  },
  "PN": {
    "name": "Pitcairn",
    "dialCode": "+872",
    "currencyCode": "NZD",
    "flagEmoji": "ðŸ‡µðŸ‡³"
  },
  "PL": {
    "name": "Poland",
    "dialCode": "+48",
    "currencyCode": "PLN",
    "flagEmoji": "ðŸ‡µðŸ‡±"
  },
  "PM": {
    "name": "Saint Pierre and Miquelon",
    "dialCode": "+508",
    "currencyCode": "EUR",
    "flagEmoji": "ðŸ‡µðŸ‡²"
  },
  "ZM": {
    "name": "Zambia",
    "dialCode": "+260",
    "currencyCode": "ZMK",
    "flagEmoji": "ðŸ‡¿ðŸ‡²"
  },
  "EE": {
    "name": "Estonia",
    "dialCode": "+372",
    "currencyCode": "EUR",
    "flagEmoji": "ðŸ‡ªðŸ‡ª"
  },
  "EG": {
    "name": "Egypt",
    "dialCode": "+20",
    "currencyCode": "EGP",
    "flagEmoji": "ðŸ‡ªðŸ‡¬"
  },
  "ZA": {
    "name": "South Africa",
    "dialCode": "+27",
    "currencyCode": "ZAR",
    "flagEmoji": "ðŸ‡¿ðŸ‡¦"
  },
  "EC": {
    "name": "Ecuador",
    "dialCode": "+593",
    "currencyCode": "USD",
    "flagEmoji": "ðŸ‡ªðŸ‡¨"
  },
  "IT": {
    "name": "Italy",
    "dialCode": "+39",
    "currencyCode": "EUR",
    "flagEmoji": "ðŸ‡®ðŸ‡¹"
  },
  "VN": {
    "name": "Vietnam",
    "dialCode": "+84",
    "currencyCode": "VND",
    "flagEmoji": "ðŸ‡»ðŸ‡³"
  },
  "SB": {
    "name": "Solomon Islands",
    "dialCode": "+677",
    "currencyCode": "SBD",
    "flagEmoji": "ðŸ‡¸ðŸ‡§"
  },
  "ET": {
    "name": "Ethiopia",
    "dialCode": "+251",
    "currencyCode": "ETB",
    "flagEmoji": "ðŸ‡ªðŸ‡¹"
  },
  "SO": {
    "name": "Somalia",
    "dialCode": "+252",
    "currencyCode": "SOS",
    "flagEmoji": "ðŸ‡¸ðŸ‡´"
  },
  "ZW": {
    "name": "Zimbabwe",
    "dialCode": "+263",
    "currencyCode": "ZWL",
    "flagEmoji": "ðŸ‡¿ðŸ‡¼"
  },
  "SA": {
    "name": "Saudi Arabia",
    "dialCode": "+966",
    "currencyCode": "SAR",
    "flagEmoji": "ðŸ‡¸ðŸ‡¦"
  },
  "ES": {
    "name": "Spain",
    "dialCode": "+34",
    "currencyCode": "EUR",
    "flagEmoji": "ðŸ‡ªðŸ‡¸"
  },
  "ER": {
    "name": "Eritrea",
    "dialCode": "+291",
    "currencyCode": "ERN",
    "flagEmoji": "ðŸ‡ªðŸ‡·"
  },
  "ME": {
    "name": "Montenegro",
    "dialCode": "+382",
    "currencyCode": "EUR",
    "flagEmoji": "ðŸ‡²ðŸ‡ª"
  },
  "MD": {
    "name": "Moldova",
    "dialCode": "+373",
    "currencyCode": "MDL",
    "flagEmoji": "ðŸ‡²ðŸ‡©"
  },
  "MG": {
    "name": "Madagascar",
    "dialCode": "+261",
    "currencyCode": "MGA",
    "flagEmoji": "ðŸ‡²ðŸ‡¬"
  },
  "MF": {
    "name": "Saint Martin",
    "dialCode": "+590",
    "currencyCode": "EUR",
    "flagEmoji": "ðŸ‡²ðŸ‡«"
  },
  "MA": {
    "name": "Morocco",
    "dialCode": "+212",
    "currencyCode": "MAD",
    "flagEmoji": "ðŸ‡²ðŸ‡¦"
  },
  "MC": {
    "name": "Monaco",
    "dialCode": "+377",
    "currencyCode": "EUR",
    "flagEmoji": "ðŸ‡²ðŸ‡¨"
  },
  "UZ": {
    "name": "Uzbekistan",
    "dialCode": "+998",
    "currencyCode": "UZS",
    "flagEmoji": "ðŸ‡ºðŸ‡¿"
  },
  "MM": {
    "name": "Myanmar",
    "dialCode": "+95",
    "currencyCode": "MMK",
    "flagEmoji": "ðŸ‡²ðŸ‡²"
  },
  "ML": {
    "name": "Mali",
    "dialCode": "+223",
    "currencyCode": "XOF",
    "flagEmoji": "ðŸ‡²ðŸ‡±"
  },
  "MO": {
    "name": "Macao",
    "dialCode": "+853",
    "currencyCode": "MOP",
    "flagEmoji": "ðŸ‡²ðŸ‡´"
  },
  "MN": {
    "name": "Mongolia",
    "dialCode": "+976",
    "currencyCode": "MNT",
    "flagEmoji": "ðŸ‡²ðŸ‡³"
  },
  "MH": {
    "name": "Marshall Islands",
    "dialCode": "+692",
    "currencyCode": "USD",
    "flagEmoji": "ðŸ‡²ðŸ‡­"
  },
  "MK": {
    "name": "Macedonia",
    "dialCode": "+389",
    "currencyCode": "MKD",
    "flagEmoji": "ðŸ‡²ðŸ‡°"
  },
  "MU": {
    "name": "Mauritius",
    "dialCode": "+230",
    "currencyCode": "MUR",
    "flagEmoji": "ðŸ‡²ðŸ‡º"
  },
  "MT": {
    "name": "Malta",
    "dialCode": "+356",
    "currencyCode": "EUR",
    "flagEmoji": "ðŸ‡²ðŸ‡¹"
  },
  "MW": {
    "name": "Malawi",
    "dialCode": "+265",
    "currencyCode": "MWK",
    "flagEmoji": "ðŸ‡²ðŸ‡¼"
  },
  "MV": {
    "name": "Maldives",
    "dialCode": "+960",
    "currencyCode": "MVR",
    "flagEmoji": "ðŸ‡²ðŸ‡»"
  },
  "MQ": {
    "name": "Martinique",
    "dialCode": "+596",
    "currencyCode": "EUR",
    "flagEmoji": "ðŸ‡²ðŸ‡¶"
  },
  "MP": {
    "name": "Northern Mariana Islands",
    "dialCode": "+1670",
    "currencyCode": "USD",
    "flagEmoji": "ðŸ‡²ðŸ‡µ"
  },
  "MS": {
    "name": "Montserrat",
    "dialCode": "+1664",
    "currencyCode": "XCD",
    "flagEmoji": "ðŸ‡²ðŸ‡¸"
  },
  "MR": {
    "name": "Mauritania",
    "dialCode": "+222",
    "currencyCode": "MRO",
    "flagEmoji": "ðŸ‡²ðŸ‡·"
  },
  "IM": {
    "name": "Isle of Man",
    "dialCode": "+44",
    "currencyCode": "GBP",
    "flagEmoji": "ðŸ‡®ðŸ‡²"
  },
  "UG": {
    "name": "Uganda",
    "dialCode": "+256",
    "currencyCode": "UGX",
    "flagEmoji": "ðŸ‡ºðŸ‡¬"
  },
  "TZ": {
    "name": "Tanzania, United Republic of Tanzania",
    "dialCode": "+255",
    "currencyCode": "TZS",
    "flagEmoji": "ðŸ‡¹ðŸ‡¿"
  },
  "MY": {
    "name": "Malaysia",
    "dialCode": "+60",
    "currencyCode": "MYR",
    "flagEmoji": "ðŸ‡²ðŸ‡¾"
  },
  "MX": {
    "name": "Mexico",
    "dialCode": "+52",
    "currencyCode": "MXN",
    "flagEmoji": "ðŸ‡²ðŸ‡½"
  },
  "IL": {
    "name": "Israel",
    "dialCode": "+972",
    "currencyCode": "ILS",
    "flagEmoji": "ðŸ‡®ðŸ‡±"
  },
  "FR": {
    "name": "France",
    "dialCode": "+33",
    "currencyCode": "EUR",
    "flagEmoji": "ðŸ‡«ðŸ‡·"
  },
  "IO": {
    "name": "British Indian Ocean Territory",
    "dialCode": "+246",
    "currencyCode": "USD",
    "flagEmoji": "ðŸ‡®ðŸ‡´"
  },
  "SH": {
    "name": "Saint Helena, Ascension and Tristan Da Cunha",
    "dialCode": "+290",
    "currencyCode": "SHP",
    "flagEmoji": "ðŸ‡¸ðŸ‡­"
  },
  "FI": {
    "name": "Finland",
    "dialCode": "+358",
    "currencyCode": "EUR",
    "flagEmoji": "ðŸ‡«ðŸ‡®"
  },
  "FJ": {
    "name": "Fiji",
    "dialCode": "+679",
    "currencyCode": "FJD",
    "flagEmoji": "ðŸ‡«ðŸ‡¯"
  },
  "FK": {
    "name": "Falkland Islands (Malvinas)",
    "dialCode": "+500",
    "currencyCode": "FKP",
    "flagEmoji": "ðŸ‡«ðŸ‡°"
  },
  "FM": {
    "name": "Micronesia, Federated States of Micronesia",
    "dialCode": "+691",
    "currencyCode": "USD",
    "flagEmoji": "ðŸ‡«ðŸ‡²"
  },
  "FO": {
    "name": "Faroe Islands",
    "dialCode": "+298",
    "currencyCode": "DKK",
    "flagEmoji": "ðŸ‡«ðŸ‡´"
  },
  "NI": {
    "name": "Nicaragua",
    "dialCode": "+505",
    "currencyCode": "NIO",
    "flagEmoji": "ðŸ‡³ðŸ‡®"
  },
  "NL": {
    "name": "Netherlands",
    "dialCode": "+31",
    "currencyCode": "EUR",
    "flagEmoji": "ðŸ‡³ðŸ‡±"
  },
  "NO": {
    "name": "Norway",
    "dialCode": "+47",
    "currencyCode": "NOK",
    "flagEmoji": "ðŸ‡³ðŸ‡´"
  },
  "NA": {
    "name": "Namibia",
    "dialCode": "+264",
    "currencyCode": "NAD",
    "flagEmoji": "ðŸ‡³ðŸ‡¦"
  },
  "VU": {
    "name": "Vanuatu",
    "dialCode": "+678",
    "currencyCode": "VUV",
    "flagEmoji": "ðŸ‡»ðŸ‡º"
  },
  "NC": {
    "name": "New Caledonia",
    "dialCode": "+687",
    "currencyCode": "XPF",
    "flagEmoji": "ðŸ‡³ðŸ‡¨"
  },
  "NE": {
    "name": "Niger",
    "dialCode": "+227",
    "currencyCode": "XOF",
    "flagEmoji": "ðŸ‡³ðŸ‡ª"
  },
  "NF": {
    "name": "Norfolk Island",
    "dialCode": "+672",
    "currencyCode": "AUD",
    "flagEmoji": "ðŸ‡³ðŸ‡«"
  },
  "NG": {
    "name": "Nigeria",
    "dialCode": "+234",
    "currencyCode": "NGN",
    "flagEmoji": "ðŸ‡³ðŸ‡¬"
  },
  "NZ": {
    "name": "New Zealand",
    "dialCode": "+64",
    "currencyCode": "NZD",
    "flagEmoji": "ðŸ‡³ðŸ‡¿"
  },
  "NP": {
    "name": "Nepal",
    "dialCode": "+977",
    "currencyCode": "NPR",
    "flagEmoji": "ðŸ‡³ðŸ‡µ"
  },
  "NR": {
    "name": "Nauru",
    "dialCode": "+674",
    "currencyCode": "AUD",
    "flagEmoji": "ðŸ‡³ðŸ‡·"
  },
  "NU": {
    "name": "Niue",
    "dialCode": "+683",
    "currencyCode": "NZD",
    "flagEmoji": "ðŸ‡³ðŸ‡º"
  },
  "CK": {
    "name": "Cook Islands",
    "dialCode": "+682",
    "currencyCode": "NZD",
    "flagEmoji": "ðŸ‡¨ðŸ‡°"
  },
  "CI": {
    "name": "Cote d'Ivoire",
    "dialCode": "+225",
    "currencyCode": "XOF",
    "flagEmoji": "ðŸ‡¨ðŸ‡®"
  },
  "CH": {
    "name": "Switzerland",
    "dialCode": "+41",
    "currencyCode": "CHF",
    "flagEmoji": "ðŸ‡¨ðŸ‡­"
  },
  "CO": {
    "name": "Colombia",
    "dialCode": "+57",
    "currencyCode": "COP",
    "flagEmoji": "ðŸ‡¨ðŸ‡´"
  },
  "CN": {
    "name": "China",
    "dialCode": "+86",
    "currencyCode": "CNY",
    "flagEmoji": "ðŸ‡¨ðŸ‡³"
  },
  "CM": {
    "name": "Cameroon",
    "dialCode": "+237",
    "currencyCode": "XAF",
    "flagEmoji": "ðŸ‡¨ðŸ‡²"
  },
  "CL": {
    "name": "Chile",
    "dialCode": "+56",
    "currencyCode": "CLP",
    "flagEmoji": "ðŸ‡¨ðŸ‡±"
  },
  "CC": {
    "name": "Cocos (Keeling) Islands",
    "dialCode": "+61",
    "currencyCode": "AUD",
    "flagEmoji": "ðŸ‡¨ðŸ‡¨"
  },
  "CA": {
    "name": "Canada",
    "dialCode": "+1",
    "currencyCode": "CAD",
    "flagEmoji": "ðŸ‡¨ðŸ‡¦"
  },
  "CG": {
    "name": "Congo",
    "dialCode": "+242",
    "currencyCode": "XAF",
    "flagEmoji": "ðŸ‡¨ðŸ‡¬"
  },
  "CF": {
    "name": "Central African Republic",
    "dialCode": "+236",
    "currencyCode": "XAF",
    "flagEmoji": "ðŸ‡¨ðŸ‡«"
  },
  "CD": {
    "name": "Congo, The Democratic Republic of the Congo",
    "dialCode": "+243",
    "currencyCode": "CDF",
    "flagEmoji": "ðŸ‡¨ðŸ‡©"
  },
  "CZ": {
    "name": "Czech Republic",
    "dialCode": "+420",
    "currencyCode": "CZK",
    "flagEmoji": "ðŸ‡¨ðŸ‡¿"
  },
  "CY": {
    "name": "Cyprus",
    "dialCode": "+357",
    "currencyCode": "EUR",
    "flagEmoji": "ðŸ‡¨ðŸ‡¾"
  },
  "CX": {
    "name": "Christmas Island",
    "dialCode": "+61",
    "currencyCode": "AUD",
    "flagEmoji": "ðŸ‡¨ðŸ‡½"
  },
  "CR": {
    "name": "Costa Rica",
    "dialCode": "+506",
    "currencyCode": "CRC",
    "flagEmoji": "ðŸ‡¨ðŸ‡·"
  },
  "CV": {
    "name": "Cape Verde",
    "dialCode": "+238",
    "currencyCode": "CVE",
    "flagEmoji": "ðŸ‡¨ðŸ‡»"
  },
  "CU": {
    "name": "Cuba",
    "dialCode": "+53",
    "currencyCode": "CUP",
    "flagEmoji": "ðŸ‡¨ðŸ‡º"
  },
  "SZ": {
    "name": "Swaziland",
    "dialCode": "+268",
    "currencyCode": "SZL",
    "flagEmoji": "ðŸ‡¸ðŸ‡¿"
  },
  "SY": {
    "name": "Syrian Arab Republic",
    "dialCode": "+963",
    "currencyCode": "SYP",
    "flagEmoji": "ðŸ‡¸ðŸ‡¾"
  },
  "KG": {
    "name": "Kyrgyzstan",
    "dialCode": "+996",
    "currencyCode": "KGS",
    "flagEmoji": "ðŸ‡°ðŸ‡¬"
  },
  "KE": {
    "name": "Kenya",
    "dialCode": "+254",
    "currencyCode": "KES",
    "flagEmoji": "ðŸ‡°ðŸ‡ª"
  },
  "SS": {
    "name": "South Sudan",
    "dialCode": "+211",
    "currencyCode": "SSP",
    "flagEmoji": "ðŸ‡¸ðŸ‡¸"
  },
  "SR": {
    "name": "Suriname",
    "dialCode": "+597",
    "currencyCode": "SRD",
    "flagEmoji": "ðŸ‡¸ðŸ‡·"
  },
  "KI": {
    "name": "Kiribati",
    "dialCode": "+686",
    "currencyCode": "AUD",
    "flagEmoji": "ðŸ‡°ðŸ‡®"
  },
  "KH": {
    "name": "Cambodia",
    "dialCode": "+855",
    "currencyCode": "KHR",
    "flagEmoji": "ðŸ‡°ðŸ‡­"
  },
  "KN": {
    "name": "Saint Kitts and Nevis",
    "dialCode": "+1869",
    "currencyCode": "XCD",
    "flagEmoji": "ðŸ‡°ðŸ‡³"
  },
  "KM": {
    "name": "Comoros",
    "dialCode": "+269",
    "currencyCode": "KMF",
    "flagEmoji": "ðŸ‡°ðŸ‡²"
  },
  "ST": {
    "name": "Sao Tome and Principe",
    "dialCode": "+239",
    "currencyCode": "STD",
    "flagEmoji": "ðŸ‡¸ðŸ‡¹"
  },
  "SK": {
    "name": "Slovakia",
    "dialCode": "+421",
    "currencyCode": "EUR",
    "flagEmoji": "ðŸ‡¸ðŸ‡°"
  },
  "KR": {
    "name": "Korea, Republic of South Korea",
    "dialCode": "+82",
    "currencyCode": "KRW",
    "flagEmoji": "ðŸ‡°ðŸ‡·"
  },
  "SI": {
    "name": "Slovenia",
    "dialCode": "+386",
    "currencyCode": "EUR",
    "flagEmoji": "ðŸ‡¸ðŸ‡®"
  },
  "KP": {
    "name": "Korea, Democratic People's Republic of Korea",
    "dialCode": "+850",
    "currencyCode": "KPW",
    "flagEmoji": "ðŸ‡°ðŸ‡µ"
  },
  "KW": {
    "name": "Kuwait",
    "dialCode": "+965",
    "currencyCode": "KWD",
    "flagEmoji": "ðŸ‡°ðŸ‡¼"
  },
  "SN": {
    "name": "Senegal",
    "dialCode": "+221",
    "currencyCode": "XOF",
    "flagEmoji": "ðŸ‡¸ðŸ‡³"
  },
  "SM": {
    "name": "San Marino",
    "dialCode": "+378",
    "currencyCode": "EUR",
    "flagEmoji": "ðŸ‡¸ðŸ‡²"
  },
  "SL": {
    "name": "Sierra Leone",
    "dialCode": "+232",
    "currencyCode": "SLL",
    "flagEmoji": "ðŸ‡¸ðŸ‡±"
  },
  "SC": {
    "name": "Seychelles",
    "dialCode": "+248",
    "currencyCode": "SCR",
    "flagEmoji": "ðŸ‡¸ðŸ‡¨"
  },
  "KZ": {
    "name": "Kazakhstan",
    "dialCode": "+77",
    "currencyCode": "KZT",
    "flagEmoji": "ðŸ‡°ðŸ‡¿"
  },
  "KY": {
    "name": "Cayman Islands",
    "dialCode": "+ 345",
    "currencyCode": "KYD",
    "flagEmoji": "ðŸ‡°ðŸ‡¾"
  },
  "SG": {
    "name": "Singapore",
    "dialCode": "+65",
    "currencyCode": "SGD",
    "flagEmoji": "ðŸ‡¸ðŸ‡¬"
  },
  "SE": {
    "name": "Sweden",
    "dialCode": "+46",
    "currencyCode": "SEK",
    "flagEmoji": "ðŸ‡¸ðŸ‡ª"
  },
  "SD": {
    "name": "Sudan",
    "dialCode": "+249",
    "currencyCode": "SDG",
    "flagEmoji": "ðŸ‡¸ðŸ‡©"
  },
  "DO": {
    "name": "Dominican Republic",
    "dialCode": "+1849",
    "currencyCode": "DOP",
    "flagEmoji": "ðŸ‡©ðŸ‡´"
  },
  "DM": {
    "name": "Dominica",
    "dialCode": "+1767",
    "currencyCode": "XCD",
    "flagEmoji": "ðŸ‡©ðŸ‡²"
  },
  "DJ": {
    "name": "Djibouti",
    "dialCode": "+253",
    "currencyCode": "DJF",
    "flagEmoji": "ðŸ‡©ðŸ‡¯"
  },
  "DK": {
    "name": "Denmark",
    "dialCode": "+45",
    "currencyCode": "DKK",
    "flagEmoji": "ðŸ‡©ðŸ‡°"
  },
  "VG": {
    "name": "Virgin Islands, British",
    "dialCode": "+1284",
    "currencyCode": "USD",
    "flagEmoji": "ðŸ‡»ðŸ‡¬"
  },
  "DE": {
    "name": "Germany",
    "dialCode": "+49",
    "currencyCode": "EUR",
    "flagEmoji": "ðŸ‡©ðŸ‡ª"
  },
  "YE": {
    "name": "Yemen",
    "dialCode": "+967",
    "currencyCode": "YER",
    "flagEmoji": "ðŸ‡¾ðŸ‡ª"
  },
  "DZ": {
    "name": "Algeria",
    "dialCode": "+213",
    "currencyCode": "DZD",
    "flagEmoji": "ðŸ‡©ðŸ‡¿"
  },
  "US": {
    "name": "United States",
    "dialCode": "+1",
    "currencyCode": "USD",
    "flagEmoji": "ðŸ‡ºðŸ‡¸"
  },
  "UY": {
    "name": "Uruguay",
    "dialCode": "+598",
    "currencyCode": "UYU",
    "flagEmoji": "ðŸ‡ºðŸ‡¾"
  },
  "YT": {
    "name": "Mayotte",
    "dialCode": "+262",
    "currencyCode": "EUR",
    "flagEmoji": "ðŸ‡¾ðŸ‡¹"
  },
  "LB": {
    "name": "Lebanon",
    "dialCode": "+961",
    "currencyCode": "LBP",
    "flagEmoji": "ðŸ‡±ðŸ‡§"
  },
  "LC": {
    "name": "Saint Lucia",
    "dialCode": "+1758",
    "currencyCode": "XCD",
    "flagEmoji": "ðŸ‡±ðŸ‡¨"
  },
  "LA": {
    "name": "Laos",
    "dialCode": "+856",
    "currencyCode": "LAK",
    "flagEmoji": "ðŸ‡±ðŸ‡¦"
  },
  "TV": {
    "name": "Tuvalu",
    "dialCode": "+688",
    "currencyCode": "AUD",
    "flagEmoji": "ðŸ‡¹ðŸ‡»"
  },
  "TW": {
    "name": "Taiwan",
    "dialCode": "+886",
    "currencyCode": "TWD",
    "flagEmoji": "ðŸ‡¹ðŸ‡¼"
  },
  "TT": {
    "name": "Trinidad and Tobago",
    "dialCode": "+1868",
    "currencyCode": "TTD",
    "flagEmoji": "ðŸ‡¹ðŸ‡¹"
  },
  "TR": {
    "name": "Turkey",
    "dialCode": "+90",
    "currencyCode": "TRY",
    "flagEmoji": "ðŸ‡¹ðŸ‡·"
  },
  "LK": {
    "name": "Sri Lanka",
    "dialCode": "+94",
    "currencyCode": "LKR",
    "flagEmoji": "ðŸ‡±ðŸ‡°"
  },
  "LI": {
    "name": "Liechtenstein",
    "dialCode": "+423",
    "currencyCode": "CHF",
    "flagEmoji": "ðŸ‡±ðŸ‡®"
  },
  "LV": {
    "name": "Latvia",
    "dialCode": "+371",
    "currencyCode": "EUR",
    "flagEmoji": "ðŸ‡±ðŸ‡»"
  },
  "TO": {
    "name": "Tonga",
    "dialCode": "+676",
    "currencyCode": "TOP",
    "flagEmoji": "ðŸ‡¹ðŸ‡´"
  },
  "LT": {
    "name": "Lithuania",
    "dialCode": "+370",
    "currencyCode": "LTL",
    "flagEmoji": "ðŸ‡±ðŸ‡¹"
  },
  "LU": {
    "name": "Luxembourg",
    "dialCode": "+352",
    "currencyCode": "EUR",
    "flagEmoji": "ðŸ‡±ðŸ‡º"
  },
  "LR": {
    "name": "Liberia",
    "dialCode": "+231",
    "currencyCode": "LRD",
    "flagEmoji": "ðŸ‡±ðŸ‡·"
  },
  "LS": {
    "name": "Lesotho",
    "dialCode": "+266",
    "currencyCode": "LSL",
    "flagEmoji": "ðŸ‡±ðŸ‡¸"
  },
  "TH": {
    "name": "Thailand",
    "dialCode": "+66",
    "currencyCode": "THB",
    "flagEmoji": "ðŸ‡¹ðŸ‡­"
  },
  "TG": {
    "name": "Togo",
    "dialCode": "+228",
    "currencyCode": "XOF",
    "flagEmoji": "ðŸ‡¹ðŸ‡¬"
  },
  "TD": {
    "name": "Chad",
    "dialCode": "+235",
    "currencyCode": "XAF",
    "flagEmoji": "ðŸ‡¹ðŸ‡©"
  },
  "TC": {
    "name": "Turks and Caicos Islands",
    "dialCode": "+1649",
    "currencyCode": "USD",
    "flagEmoji": "ðŸ‡¹ðŸ‡¨"
  },
  "LY": {
    "name": "Libyan Arab Jamahiriya",
    "dialCode": "+218",
    "currencyCode": "LYD",
    "flagEmoji": "ðŸ‡±ðŸ‡¾"
  },
  "VA": {
    "name": "Holy See (Vatican City State)",
    "dialCode": "+379",
    "currencyCode": "EUR",
    "flagEmoji": "ðŸ‡»ðŸ‡¦"
  },
  "VC": {
    "name": "Saint Vincent and the Grenadines",
    "dialCode": "+1784",
    "currencyCode": "XCD",
    "flagEmoji": "ðŸ‡»ðŸ‡¨"
  },
  "AE": {
    "name": "United Arab Emirates",
    "dialCode": "+971",
    "currencyCode": "AED",
    "flagEmoji": "ðŸ‡¦ðŸ‡ª"
  },
  "AD": {
    "name": "Andorra",
    "dialCode": "+376",
    "currencyCode": "EUR",
    "flagEmoji": "ðŸ‡¦ðŸ‡©"
  },
  "AG": {
    "name": "Antigua and Barbuda",
    "dialCode": "+1268",
    "currencyCode": "XCD",
    "flagEmoji": "ðŸ‡¦ðŸ‡¬"
  },
  "AF": {
    "name": "Afghanistan",
    "dialCode": "+93",
    "currencyCode": "AFN",
    "flagEmoji": "ðŸ‡¦ðŸ‡«"
  },
  "AI": {
    "name": "Anguilla",
    "dialCode": "+1264",
    "currencyCode": "XCD",
    "flagEmoji": "ðŸ‡¦ðŸ‡®"
  },
  "VI": {
    "name": "Virgin Islands, U.S.",
    "dialCode": "+1340",
    "currencyCode": "USD",
    "flagEmoji": "ðŸ‡»ðŸ‡®"
  },
  "IS": {
    "name": "Iceland",
    "dialCode": "+354",
    "currencyCode": "ISK",
    "flagEmoji": "ðŸ‡®ðŸ‡¸"
  },
  "IR": {
    "name": "Iran, Islamic Republic of Persian Gulf",
    "dialCode": "+98",
    "currencyCode": "IRR",
    "flagEmoji": "ðŸ‡®ðŸ‡·"
  },
  "AM": {
    "name": "Armenia",
    "dialCode": "+374",
    "currencyCode": "AMD",
    "flagEmoji": "ðŸ‡¦ðŸ‡²"
  },
  "AL": {
    "name": "Albania",
    "dialCode": "+355",
    "currencyCode": "ALL",
    "flagEmoji": "ðŸ‡¦ðŸ‡±"
  },
  "AO": {
    "name": "Angola",
    "dialCode": "+244",
    "currencyCode": "AOA",
    "flagEmoji": "ðŸ‡¦ðŸ‡´"
  },
  "AQ": {
    "name": "Antarctica",
    "dialCode": "+672",
    "currencyCode": "XCD",
    "flagEmoji": "ðŸ‡¦ðŸ‡¶"
  },
  "AS": {
    "name": "AmericanSamoa",
    "dialCode": "+1684",
    "currencyCode": "USD",
    "flagEmoji": "ðŸ‡¦ðŸ‡¸"
  },
  "AR": {
    "name": "Argentina",
    "dialCode": "+54",
    "currencyCode": "ARS",
    "flagEmoji": "ðŸ‡¦ðŸ‡·"
  },
  "AU": {
    "name": "Australia",
    "dialCode": "+61",
    "currencyCode": "AUD",
    "flagEmoji": "ðŸ‡¦ðŸ‡º"
  },
  "AT": {
    "name": "Austria",
    "dialCode": "+43",
    "currencyCode": "EUR",
    "flagEmoji": "ðŸ‡¦ðŸ‡¹"
  },
  "AW": {
    "name": "Aruba",
    "dialCode": "+297",
    "currencyCode": "AWG",
    "flagEmoji": "ðŸ‡¦ðŸ‡¼"
  },
  "IN": {
    "name": "India",
    "dialCode": "+91",
    "currencyCode": "INR",
    "flagEmoji": "ðŸ‡®ðŸ‡³"
  },
  "AX": {
    "name": "Aland Islands",
    "dialCode": "+358",
    "currencyCode": "EUR",
    "flagEmoji": "ðŸ‡¦ðŸ‡½"
  },
  "AZ": {
    "name": "Azerbaijan",
    "dialCode": "+994",
    "currencyCode": "AZN",
    "flagEmoji": "ðŸ‡¦ðŸ‡¿"
  },
  "IE": {
    "name": "Ireland",
    "dialCode": "+353",
    "currencyCode": "EUR",
    "flagEmoji": "ðŸ‡®ðŸ‡ª"
  },
  "ID": {
    "name": "Indonesia",
    "dialCode": "+62",
    "currencyCode": "IDR",
    "flagEmoji": "ðŸ‡®ðŸ‡©"
  },
  "UA": {
    "name": "Ukraine",
    "dialCode": "+380",
    "currencyCode": "UAH",
    "flagEmoji": "ðŸ‡ºðŸ‡¦"
  },
  "QA": {
    "name": "Qatar",
    "dialCode": "+974",
    "currencyCode": "QAR",
    "flagEmoji": "ðŸ‡¶ðŸ‡¦"
  },
  "MZ": {
    "name": "Mozambique",
    "dialCode": "+258",
    "currencyCode": "MZN",
    "flagEmoji": "ðŸ‡²ðŸ‡¿"
  }
}